{
  "norad_id": 54791,
  "name": "STARLINK-5425",
  "history": [
    {
      "epoch": "2026-03-28T20:31:38.037504Z",
      "apogee_km": 540.7262277107393,
      "perigee_km": 538.7546326431384,
      "latitude_deg": -1.3479914651665777e-05,
      "longitude_deg": 168.84994097962965,
      "height_km": 540.5822109374076,
      "semi_major_axis_km": 6917.877430176939,
      "eccentricity": 0.0001425,
      "inclination_deg": 53.2174,
      "raan_deg": 303.0282,
      "arg_perigee_deg": 86.8691,
      "mean_anomaly_deg": 273.2464,
      "mean_motion_rev_day": 15.08840968
    },
    {
      "epoch": "2026-03-28T23:42:24.227424Z",
      "apogee_km": 540.7219719655423,
      "perigee_km": 538.7462279793899,
      "latitude_deg": -3.553511286907768e-05,
      "longitude_deg": 120.43218921925214,
      "height_km": 540.5687780792184,
      "semi_major_axis_km": 6917.871099972465,
      "eccentricity": 0.0001428,
      "inclination_deg": 53.2173,
      "raan_deg": 302.4335,
      "arg_perigee_deg": 86.4636,
      "mean_anomaly_deg": 273.6519,
      "mean_motion_rev_day": 15.08843039
    },
    {
      "epoch": "2026-03-29T23:33:11.289888Z",
      "apogee_km": 540.7705427620131,
      "perigee_km": 538.7090154818361,
      "latitude_deg": -6.679202061720253e-05,
      "longitude_deg": 117.2951357687195,
      "height_km": 540.6618938204177,
      "semi_major_axis_km": 6917.876779121924,
      "eccentricity": 0.000149,
      "inclination_deg": 53.2178,
      "raan_deg": 297.9719,
      "arg_perigee_deg": 91.4752,
      "mean_anomaly_deg": 268.641,
      "mean_motion_rev_day": 15.08841181
    },
    {
      "epoch": "2026-03-29T23:33:11.290752Z",
      "apogee_km": 540.7708194770848,
      "perigee_km": 538.7087387667643,
      "latitude_deg": -7.047366996316328e-05,
      "longitude_deg": 117.29512942150653,
      "height_km": 540.6619009429448,
      "semi_major_axis_km": 6917.876779121924,
      "eccentricity": 0.00014904,
      "inclination_deg": 53.2178,
      "raan_deg": 297.9719,
      "arg_perigee_deg": 91.4752,
      "mean_anomaly_deg": 268.641,
      "mean_motion_rev_day": 15.08841181
    },
    {
      "epoch": "2026-03-30T13:51:39.570048Z",
      "apogee_km": 540.8067663415541,
      "perigee_km": 538.6781348346076,
      "latitude_deg": 1.8341081445301542e-05,
      "longitude_deg": -100.58723700703015,
      "height_km": 540.7320910857229,
      "semi_major_axis_km": 6917.8794505880805,
      "eccentricity": 0.00015385,
      "inclination_deg": 53.218,
      "raan_deg": 295.2949,
      "arg_perigee_deg": 95.0732,
      "mean_anomaly_deg": 265.0436,
      "mean_motion_rev_day": 15.08840307
    },
    {
      "epoch": "2026-03-30T20:13:12.147744Z",
      "apogee_km": 540.7893961456002,
      "perigee_km": 538.6977057822105,
      "latitude_deg": -9.884154397994976e-06,
      "longitude_deg": 162.5766450361737,
      "height_km": 540.6976212144833,
      "semi_major_axis_km": 6917.880550963905,
      "eccentricity": 0.00015118,
      "inclination_deg": 53.218,
      "raan_deg": 294.1057,
      "arg_perigee_deg": 93.207,
      "mean_anomaly_deg": 266.9095,
      "mean_motion_rev_day": 15.08839947
    },
    {
      "epoch": "2026-03-30T23:23:58.396416Z",
      "apogee_km": 540.7896320875616,
      "perigee_km": 538.6961432759526,
      "latitude_deg": -2.4101989119321254e-05,
      "longitude_deg": 114.15865383786895,
      "height_km": 540.693861620333,
      "semi_major_axis_km": 6917.879887681757,
      "eccentricity": 0.00015131,
      "inclination_deg": 53.218,
      "raan_deg": 293.511,
      "arg_perigee_deg": 93.0345,
      "mean_anomaly_deg": 267.082,
      "mean_motion_rev_day": 15.08840164
    },
    {
      "epoch": "2026-04-01T19:54:46.753920Z",
      "apogee_km": 540.7572169346504,
      "perigee_km": 538.7620955389912,
      "latitude_deg": -2.8705030504213864e-05,
      "longitude_deg": 156.30306155102986,
      "height_km": 540.6443833334719,
      "semi_major_axis_km": 6917.8966562368205,
      "eccentricity": 0.0001442,
      "inclination_deg": 53.2173,
      "raan_deg": 285.185,
      "arg_perigee_deg": 89.3764,
      "mean_anomaly_deg": 270.7393,
      "mean_motion_rev_day": 15.08834678
    }
  ]
}